{"epoch":1784902576,"count":18312,"objects":[{"id":"19548","name":"TDRS 3","type":"PAYLOAD","l1":"1 19548U 88091B   26205.32375810 -.00000296  00000-0  00000-0 0  9995","l2":"2 19548  12.5732 340.7532 0037619 355.3499  33.5421  1.00278467125761"},{"id":"20253","name":"FLTSATCOM 8 (USA 46)","type":"PAYLOAD","l1":"1 20253U 89077A   26205.27875134 -.00000365  00000-0  00000-0 0  9990","l2":"2 20253  12.4110 350.9348 0002130 104.9146  72.1979  1.00278795260930"},{"id":"20776","name":"SKYNET 4C","type":"PAYLOAD","l1":"1 20776U 90079A   26205.28065802 -.00000229  00000-0  00000-0 0  9997","l2":"2 20776  13.3261 349.5783 0003305 133.6810  55.4638  0.98580027   406"},{"id":"21639","name":"TDRS 5","type":"PAYLOAD","l1":"1 21639U 91054B   26205.14931219  .00000085  00000-0  00000-0 0  9998","l2":"2 21639  14.0663 353.5018 0007263 254.0182 300.5133  1.00278307128080"},{"id":"22314","name":"TDRS 6","type":"PAYLOAD","l1":"1 22314U 93003B   26205.24486451 -.00000295  00000-0  00000-0 0  9993","l2":"2 22314  14.1835 356.7782 0008854 187.0620 160.4374  1.00276432122772"},{"id":"22787","name":"UFO 2 (USA 95)","type":"PAYLOAD","l1":"1 22787U 93056A   26205.10044957  .00000124  00000-0  00000-0 0  9991","l2":"2 22787  11.9079   3.3446 0001858 357.3351   5.9270  1.00274683118929"},{"id":"23467","name":"UFO 4 (USA 108)","type":"PAYLOAD","l1":"1 23467U 95003A   26205.21675647 -.00000022  00000-0  00000-0 0  9997","l2":"2 23467   9.6832  12.9767 0002876 101.9871  77.3249  1.00269943115322"},{"id":"23613","name":"TDRS 7","type":"PAYLOAD","l1":"1 23613U 95035B   26204.91503678 -.00000240  00000-0  00000-0 0  9997","l2":"2 23613  13.3620 347.9319 0011027  88.1083 284.2779  1.00271531113629"},{"id":"23712","name":"USA 115","type":"PAYLOAD","l1":"1 23712U 95060A   26205.16811190 -.00000204  00000-0  00000-0 0  9994","l2":"2 23712  14.0857   3.4672 0006606 125.5918 143.3470  1.00275613 33253"},{"id":"23839","name":"INMARSAT 3-F1","type":"PAYLOAD","l1":"1 23839U 96020A   26205.19209086  .00000090  00000-0  00000-0 0  9991","l2":"2 23839  10.6756  46.2857 0004751 101.4781  89.1281  0.99983025110627"},{"id":"24307","name":"INMARSAT 3-F2","type":"PAYLOAD","l1":"1 24307U 96053A   26204.99108353 -.00000337  00000-0  00000-0 0  9995","l2":"2 24307   9.9371  53.5538 0006151  64.4160 293.3266  0.99986772109288"},{"id":"24674","name":"INMARSAT 3-F3","type":"PAYLOAD","l1":"1 24674U 96070A   26205.25491789 -.00000029  00000-0  00000-0 0  9997","l2":"2 24674  10.3958  49.2891 0003716  92.6806 256.7689  0.99998071108275"},{"id":"25019","name":"USA 134","type":"PAYLOAD","l1":"1 25019U 97065A   26204.99191653 -.00000067  00000-0  00000-0 0  9995","l2":"2 25019  12.8271  21.4408 0002410 344.7832 180.2772  1.00277369 33320"},{"id":"25153","name":"INMARSAT 3-F5","type":"PAYLOAD","l1":"1 25153U 98006B   26205.33762705 -.00000294  00000-0  00000-0 0  9993","l2":"2 25153   9.7736  52.8826 0004678  70.7004 246.0467  1.00270618104261"},{"id":"25924","name":"ABS 6 (LMI 1)","type":"PAYLOAD","l1":"1 25924U 99053A   26205.21406979 -.00000115  00000-0  00000-0 0  9999","l2":"2 25924   0.0658 264.2955 0003177 200.7601  72.9474  1.00270116 98211"},{"id":"25967","name":"UFO 10 (USA 146)","type":"PAYLOAD","l1":"1 25967U 99063A   26205.24937120 -.00000189  00000-0  00000-0 0  9998","l2":"2 25967   9.8444  27.0081 0001968 139.1896 202.5936  1.00271174 97713"},{"id":"26107","name":"ASIASTAR","type":"PAYLOAD","l1":"1 26107U 00016A   26204.98952352 -.00000337  00000-0  00000-0 0  9994","l2":"2 26107   9.2127  57.7549 0004235  58.2847 286.9014  1.00273975 96283"},{"id":"26356","name":"USA 149","type":"PAYLOAD","l1":"1 26356U 00024A   26205.14991887  .00000093  00000-0  00000-0 0  9992","l2":"2 26356  13.1981  11.5830 0000151 216.9669 322.2990  1.00263532 33286"},{"id":"26388","name":"TDRS 8","type":"PAYLOAD","l1":"1 26388U 00034A   26205.05673637 -.00000199  00000-0  00000-0 0  9996","l2":"2 26388  12.7401  31.0020 0003393  43.2240 332.8013  1.00270657 95555"},{"id":"26554","name":"NSS 11 (AAP-1)","type":"PAYLOAD","l1":"1 26554U 00059A   26205.28878642  .00000028  00000-0  00000-0 0  9996","l2":"2 26554   2.2194  80.9492 0003132  39.5886 101.4280  1.00272180 41666"},{"id":"26575","name":"USA 153","type":"PAYLOAD","l1":"1 26575U 00065A   26204.85285846 -.00000328  00000-0  00000-0 0  9990","l2":"2 26575  11.6860  35.1094 0002163  61.4175 286.5586  1.00271406 33295"},{"id":"26580","name":"AMC-6 (GE-6)","type":"PAYLOAD","l1":"1 26580U 00067A   26205.32212519  .00000093  00000-0  00000-0 0  9996","l2":"2 26580   0.2440  83.8990 0004210  49.2881 149.7619  1.00272175 94262"},{"id":"26715","name":"USA 157","type":"PAYLOAD","l1":"1 26715U 01009A   26205.17041778  .00000107  00000-0  00000-0 0  9999","l2":"2 26715  11.5826  19.5279 0040740 177.8814  15.8421  1.00267897 33311"},{"id":"26900","name":"INTELSAT 902","type":"PAYLOAD","l1":"1 26900U 01039A   26205.08864094 -.00000284  00000-0  00000-0 0  9999","l2":"2 26900   6.2066  71.3260 0004252  52.0678 160.2361  1.00271811 91065"},{"id":"27168","name":"USA 164","type":"PAYLOAD","l1":"1 27168U 02001A   26203.68935113  .00000094  00000-0  00000-0 0  9999","l2":"2 27168  11.2216  21.6856 0099294   9.3175 176.5324  1.00270369 33311"},{"id":"27380","name":"INTELSAT 904","type":"PAYLOAD","l1":"1 27380U 02007A   26204.96247912 -.00000227  00000-0  00000-0 0  9995","l2":"2 27380   7.0088  68.7379 0005235  30.5663 157.4113  1.00273392 52133"},{"id":"27426","name":"DIRECTV 5 (TEMPO 1)","type":"PAYLOAD","l1":"1 27426U 02023A   26205.32283459 -.00000057  00000-0  00000-0 0  9992","l2":"2 27426   4.9696  74.8438 0003247  46.7629 186.5465  1.00272399 88498"},{"id":"27438","name":"INTELSAT 905","type":"PAYLOAD","l1":"1 27438U 02027A   26204.72774113  .00000092  00000-0  00000-0 0  9992","l2":"2 27438   6.8423  69.3541 0003614  52.3431 304.5410  1.00273211 51728"},{"id":"27445","name":"GALAXY 3C","type":"PAYLOAD","l1":"1 27445U 02030A   26205.33626722 -.00000151  00000-0  00000-0 0  9991","l2":"2 27445   3.8273  77.4977 0001882  29.7853 220.9810  1.00271454 46861"},{"id":"27513","name":"INTELSAT 906","type":"PAYLOAD","l1":"1 27513U 02041A   26205.11989179  .00000012  00000-0  00000-0 0  9998","l2":"2 27513   5.8926  72.4600 0003375  33.6623 303.0315  1.00271720 87392"},{"id":"27632","name":"NIMIQ 2","type":"PAYLOAD","l1":"1 27632U 02062A   26205.32867748 -.00000072  00000-0  00000-0 0  9990","l2":"2 27632   9.5283  56.5008 0005556  61.3521 193.3148  1.00273706 44555"}]}