OBJECT_NAME,OBJECT_ID,EPOCH,MEAN_MOTION,ECCENTRICITY,INCLINATION,RA_OF_ASC_NODE,ARG_OF_PERICENTER,MEAN_ANOMALY,EPHEMERIS_TYPE,CLASSIFICATION_TYPE,NORAD_CAT_ID,ELEMENT_SET_NO,REV_AT_EPOCH,BSTAR,MEAN_MOTION_DOT,MEAN_MOTION_DDOT
TDRS 3,1988-091B,2026-07-24T07:46:12.699840,1.00278467,.00376192,12.5732,340.7532,355.3499,33.5421,0,U,19548,999,12576,0,-.296E-5,0
FLTSATCOM 8 (USA 46),1989-077A,2026-07-24T06:41:24.115776,1.00278795,.000213,12.4110,350.9348,104.9146,72.1979,0,U,20253,999,26093,0,-.365E-5,0
SKYNET 4C,1990-079A,2026-07-24T06:44:08.852928,0.98580027,.00033049,13.3261,349.5783,133.6810,55.4638,0,U,20776,999,40,0,-.229E-5,0
TDRS 5,1991-054B,2026-07-24T03:35:00.573216,1.00278307,.0007263,14.0663,353.5018,254.0182,300.5133,0,U,21639,999,12808,0,.85E-6,0
TDRS 6,1993-003B,2026-07-24T05:52:36.293664,1.00276432,.00088539,14.1835,356.7782,187.0620,160.4374,0,U,22314,999,12277,0,-.295E-5,0
UFO 2 (USA 95),1993-056A,2026-07-24T02:24:38.842848,1.00274683,.0001858,11.9079,3.3446,357.3351,5.9270,0,U,22787,999,11892,0,.124E-5,0
UFO 4 (USA 108),1995-003A,2026-07-24T05:12:07.759008,1.00269943,.00028758,9.6832,12.9767,101.9871,77.3249,0,U,23467,999,11532,0,-.22E-6,0
TDRS 7,1995-035B,2026-07-23T21:57:39.177792,1.00271531,.00110268,13.3620,347.9319,88.1083,284.2779,0,U,23613,999,11362,0,-.24E-5,0
USA 115 (MILSTAR-1 2),1995-060A,2026-07-24T04:02:04.868160,1.00275613,.00066061,14.0857,3.4672,125.5918,143.3470,0,U,23712,999,3325,0,-.204E-5,0
INMARSAT 3-F1,1996-020A,2026-07-24T04:36:36.650304,0.99983025,.00047509,10.6756,46.2857,101.4781,89.1281,0,U,23839,999,11062,0,.9E-6,0
INMARSAT 3-F2,1996-053A,2026-07-23T23:47:09.616992,0.99986772,.00061512,9.9371,53.5538,64.4160,293.3266,0,U,24307,999,10928,0,-.337E-5,0
INMARSAT 3-F3,1996-070A,2026-07-24T06:07:04.905696,0.99998071,.00037155,10.3958,49.2891,92.6806,256.7689,0,U,24674,999,10827,0,-.29E-6,0
USA 134,1997-065A,2026-07-23T23:48:21.588192,1.00277369,.00024101,12.8271,21.4408,344.7832,180.2772,0,U,25019,999,3332,0,-.67E-6,0
INMARSAT 3-F5,1998-006B,2026-07-24T08:06:10.977120,1.00270618,.00046778,9.7736,52.8826,70.7004,246.0467,0,U,25153,999,10426,0,-.294E-5,0
ABS-6,1999-053A,2026-07-24T05:08:15.629856,1.00270116,.00031772,0.0658,264.2955,200.7601,72.9474,0,U,25924,999,9821,0,-.115E-5,0
UFO 10 (USA 146),1999-063A,2026-07-24T05:59:05.671680,1.00271174,.00019683,9.8444,27.0081,139.1896,202.5936,0,U,25967,999,9771,0,-.189E-5,0
ASIASTAR,2000-016A,2026-07-23T23:44:54.832128,1.00273975,.0004235,9.2127,57.7549,58.2847,286.9014,0,U,26107,999,9628,0,-.337E-5,0
USA 149 (DSP 20),2000-024A,2026-07-24T03:35:52.990368,1.00263532,.00001507,13.1981,11.5830,216.9669,322.2990,0,U,26356,999,3328,0,.93E-6,0
TDRS 8,2000-034A,2026-07-24T01:21:42.022368,1.00270657,.00033926,12.7401,31.0020,43.2240,332.8013,0,U,26388,999,9555,0,-.199E-5,0
NSS-11,2000-059A,2026-07-24T06:55:51.146688,1.00272180,.00031316,2.2194,80.9492,39.5886,101.4280,0,U,26554,999,4166,0,.28E-6,0
USA 153,2000-065A,2026-07-23T20:28:06.970944,1.00271406,.00021628,11.6860,35.1094,61.4175,286.5586,0,U,26575,999,3329,0,-.328E-5,0
AMC-6,2000-067A,2026-07-24T07:43:51.616416,1.00272175,.00042097,0.2440,83.8990,49.2881,149.7619,0,U,26580,999,9426,0,.93E-6,0
USA 157 (MILSTAR-2 2),2001-009A,2026-07-24T04:05:24.096192,1.00267897,.00407397,11.5826,19.5279,177.8814,15.8421,0,U,26715,999,3331,0,.107E-5,0
INTELSAT 902 (IS-902),2001-039A,2026-07-24T02:07:38.577216,1.00271811,.00042522,6.2066,71.3260,52.0678,160.2361,0,U,26900,999,9106,0,-.284E-5,0
USA 164 (MILSTAR-2 3),2002-001A,2026-07-22T16:32:39.937632,1.00270369,.00992943,11.2216,21.6856,9.3175,176.5324,0,U,27168,999,3331,0,.94E-6,0
INTELSAT 904 (IS-904),2002-007A,2026-07-23T23:05:58.195968,1.00273392,.00052351,7.0088,68.7379,30.5663,157.4113,0,U,27380,999,5213,0,-.227E-5,0
DIRECTV 5 (TEMPO 1),2002-023A,2026-07-24T07:44:52.908576,1.00272399,.00032475,4.9696,74.8438,46.7629,186.5465,0,U,27426,999,8849,0,-.57E-6,0
INTELSAT 905 (IS-905),2002-027A,2026-07-23T17:27:56.833632,1.00273211,.00036143,6.8423,69.3541,52.3431,304.5410,0,U,27438,999,5172,0,.92E-6,0
GALAXY 3C (G-3C),2002-030A,2026-07-24T08:04:13.487808,1.00271454,.00018823,3.8273,77.4977,29.7853,220.9810,0,U,27445,999,4686,0,-.151E-5,0
INTELSAT 906 (IS-906),2002-041A,2026-07-24T02:52:38.650656,1.00271720,.00033749,5.8926,72.4600,33.6623,303.0315,0,U,27513,999,8739,0,.12E-6,0
NIMIQ 2,2002-062A,2026-07-24T07:53:17.734272,1.00273706,.00055555,9.5283,56.5008,61.3521,193.3148,0,U,27632,999,4455,0,-.72E-6,0
